GLOBALSTAR M057 [-]     
1 25943U 99058A   23327.04167070 -.00000046  00000+0  42429-3 0  9990
2 25943  51.9954 171.8727 0001309 282.3568  77.7135 12.24779503 96823
GLOBALSTAR M059 [-]     
1 25944U 99058B   23327.35550420 -.00000018  00000+0  83916-3 0  9995
2 25944  52.0028 314.1278 0000412 341.5998 166.0349 11.99955775505394
GLOBALSTAR M056 [-]     
1 25945U 99058C   23327.30590778 -.00000059  00000+0  33626-3 0  9999
2 25945  51.9978 330.9142 0001020 121.5055 342.4041 12.04772441 93697
GLOBALSTAR M031 [-]     
1 25946U 99058D   23327.25725400 -.00000079  00000+0  11777-3 0  9991
2 25946  51.9961 257.5866 0002156  82.9079  83.1393 12.15998191 94968
GLOBALSTAR M039 [-]     
1 25961U 99062A   23327.63088173 -.00000045  00000+0  32881-3 0  9996
2 25961  51.9830 209.4872 0003011 140.7362 219.3723 12.62275350108066
GLOBALSTAR M034 [-]     
1 25962U 99062B   23327.49313282 -.00000074  00000+0  10994-3 0  9996
2 25962  51.9891  57.4218 0014181  45.3229  38.4143 11.79417623 70939
GLOBALSTAR M029 [-]     
1 25963U 99062C   23327.80899352 -.00000054  00000+0  40017-3 0  9996
2 25963  51.9780 201.4259 0003759  75.4192   3.1448 11.99870744100586
GLOBALSTAR M061 [-]     
1 25964U 99062D   23327.24024862 -.00000076  00000+0  70565-4 0  9997
2 25964  51.9786 234.5395 0006099 339.6331 189.4617 11.76754356 53848
